OBJECT_NAME,OBJECT_ID,EPOCH,MEAN_MOTION,ECCENTRICITY,INCLINATION,RA_OF_ASC_NODE,ARG_OF_PERICENTER,MEAN_ANOMALY,EPHEMERIS_TYPE,CLASSIFICATION_TYPE,NORAD_CAT_ID,ELEMENT_SET_NO,REV_AT_EPOCH,BSTAR,MEAN_MOTION_DOT,MEAN_MOTION_DDOT
CHINASAT 9B,2021-080A,2026-06-26T02:46:12.502272,1.00271583,.0002411,0.0188,281.5435,192.5613,303.1020,0,U,49125,999,1773,0,-.302E-5,0
STARLINK-3090,2021-082C,2026-06-26T01:22:07.779072,14.98333901,.000279,70.0002,21.0979,269.6523,90.4316,0,U,49132,999,26221,.39303E-4,.376E-5,0
STARLINK-3077,2021-082D,2026-06-25T22:33:54.476640,14.98331713,.0002724,70.0001,21.5187,271.3444,88.7403,0,U,49133,999,26219,.76258E-5,-.2E-7,0
STARLINK-3078,2021-082E,2026-06-26T00:04:03.487296,14.98321910,.0002933,70.0002,21.3639,271.4799,88.6024,0,U,49134,999,26340,.68509E-4,.724E-5,0
STARLINK-3073,2021-082F,2026-06-26T04:09:42.648192,14.98331827,.0002805,70.0005,340.9116,266.8756,93.2082,0,U,49135,999,26322,-.87984E-5,-.198E-5,0
STARLINK-3055,2021-082H,2026-06-25T21:21:41.256576,14.97524359,.0002936,69.9998,2.7744,268.2812,91.8010,0,U,49137,999,26265,.43696E-5,-.41E-6,0
STARLINK-3058,2021-082J,2026-06-25T23:58:01.629408,14.98332080,.0002932,70.0003,21.3774,268.6594,91.4229,0,U,49138,999,26220,-.30336E-5,-.129E-5,0
STARLINK-3057,2021-082K,2026-06-26T04:00:01.998720,15.15650129,.000358,70.0005,339.9604,279.2297,255.4531,0,U,49139,999,580,.98512E-3,.18718E-3,0
STARLINK-3093,2021-082M,2026-06-25T23:52:01.432128,14.98344380,.0002705,70.0000,21.3926,262.9592,97.1259,0,U,49141,999,26340,.85449E-4,.927E-5,0
STARLINK-3109,2021-082P,2026-06-25T22:52:02.308800,14.97528068,.0002835,70.0002,2.6201,270.3954,89.6879,0,U,49143,999,26377,.77579E-6,-.83E-6,0
STARLINK-3100,2021-082Q,2026-06-25T23:39:59.946336,14.98333036,.0002989,70.0000,21.3934,269.0753,91.0064,0,U,49144,999,26220,.55988E-4,.575E-5,0
STARLINK-3119,2021-082R,2026-06-25T20:51:05.831136,14.98333713,.0003312,69.9999,341.6822,267.4762,92.6018,0,U,49145,999,26316,.2308E-4,.182E-5,0
STARLINK-3116,2021-082S,2026-06-25T22:46:01.759008,14.97527903,.0002688,69.9996,2.6342,268.1929,91.8922,0,U,49146,999,26381,.43702E-4,.419E-5,0
STARLINK-3071,2021-082T,2026-06-25T21:09:07.407072,14.98332062,.0003006,69.9997,341.6684,267.8321,92.2494,0,U,49147,999,26317,.21503E-4,.164E-5,0
STARLINK-3048,2021-082U,2026-06-25T22:34:00.312096,14.97524579,.0002203,69.9999,2.6337,269.2907,90.7999,0,U,49148,999,26265,.3207E-4,.283E-5,0
STARLINK-3102,2021-082X,2026-06-26T04:39:45.269280,14.98329260,.0003034,70.0000,340.8694,267.8010,92.2801,0,U,49151,999,26441,.26053E-4,.218E-5,0
STARLINK-3072,2021-082Z,2026-06-25T20:27:03.944736,14.98330813,.0002378,70.0005,341.7393,268.8408,91.2479,0,U,49153,999,26437,.50984E-4,.515E-5,0
STARLINK-3068,2021-082AA,2026-06-25T22:27:59.783040,14.97523199,.0002706,69.9999,2.6482,269.7039,90.3809,0,U,49154,999,26373,.30589E-4,.265E-5,0
STARLINK-3060,2021-082AB,2026-06-26T04:21:43.740000,14.98329935,.0003019,70.0005,340.8995,268.1606,91.9207,0,U,49155,999,26429,.55772E-5,-.26E-6,0
STARLINK-3085,2021-082AC,2026-06-26T03:51:41.181120,14.98329462,.0002877,70.0005,340.9534,267.6172,92.4658,0,U,49156,999,26429,-.98664E-5,-.211E-5,0
STARLINK-3051,2021-082AD,2026-06-26T04:48:13.201056,15.05827081,.0001545,69.9984,355.2318,136.0638,224.0648,0,U,49157,999,26396,.27E-3,.3828E-4,0
STARLINK-3083,2021-082AE,2026-06-26T04:08:19.037184,15.79086968,.0004173,69.9604,227.4349,294.9374,65.1392,0,U,49158,999,26709,.50201E-3,.90357E-3,0
STARLINK-3056,2021-082AF,2026-06-25T23:21:58.959648,14.98322896,.0002801,69.9996,21.4351,269.1344,90.9494,0,U,49159,999,26329,.59968E-4,.622E-5,0
STARLINK-3095,2021-082AG,2026-06-25T21:27:48.892896,14.98331872,.0002954,69.9994,21.6162,267.6629,92.4192,0,U,49160,999,26325,.20246E-4,.149E-5,0
STARLINK-3080,2021-082AH,2026-06-25T21:33:49.358016,14.98331685,.0002723,70.0001,21.6030,263.9780,96.1069,0,U,49161,999,26326,.55053E-4,.564E-5,0
STARLINK-3088,2021-082AK,2026-06-25T22:09:57.465792,14.97525017,.0002899,70.0000,2.6903,270.3441,89.7386,0,U,49163,999,26381,.3336E-4,.298E-5,0
STARLINK-3106,2021-082AL,2026-06-25T22:09:32.656032,14.98271734,.0003208,69.9999,1.5577,260.8237,99.2559,0,U,49164,999,26384,.10417E-2,.1234E-3,0
STARLINK-3052,2021-082AM,2026-06-25T22:57:56.673216,14.98331312,.0002926,69.9996,21.4904,271.6527,88.4297,0,U,49165,999,26339,.92106E-4,.1006E-4,0
STARLINK-3089,2021-082AN,2026-06-25T22:03:57.907872,14.97524065,.0002985,69.9994,2.7037,271.3529,88.7287,0,U,49166,999,26385,.72097E-4,.75E-5,0
STARLINK-3054,2021-082AP,2026-06-25T22:45:55.571040,14.98336886,.0003051,70.0000,21.4913,268.1306,91.9504,0,U,49167,999,26339,-.73217E-4,-.967E-5,0
