CHINASAT 9B             
1 49125U 21080A   26177.11542248 -.00000302  00000+0  00000+0 0  9996
2 49125   0.0188 281.5435 0002411 192.5613 303.1020  1.00271583 17737
STARLINK-3090           
1 49132U 21082C   26177.05703448  .00000376  00000+0  39303-4 0  9993
2 49132  70.0002  21.0979 0002790 269.6523  90.4316 14.98333901262216
STARLINK-3077           
1 49133U 21082D   26176.94021385 -.00000002  00000+0  76258-5 0  9992
2 49133  70.0001  21.5187 0002724 271.3444  88.7403 14.98331713262194
STARLINK-3078           
1 49134U 21082E   26177.00281814  .00000724  00000+0  68509-4 0  9995
2 49134  70.0002  21.3639 0002933 271.4799  88.6024 14.98321910263403
STARLINK-3073           
1 49135U 21082F   26177.17341028 -.00000198  00000+0 -87984-5 0  9994
2 49135  70.0005 340.9116 0002805 266.8756  93.2082 14.98331827263220
STARLINK-3055           
1 49137U 21082H   26176.89006084 -.00000041  00000+0  43696-5 0  9992
2 49137  69.9998   2.7744 0002936 268.2812  91.8010 14.97524359262658
STARLINK-3058           
1 49138U 21082J   26176.99862997 -.00000129  00000+0 -30336-5 0  9992
2 49138  70.0003  21.3774 0002932 268.6594  91.4229 14.98332080262204
STARLINK-3057           
1 49139U 21082K   26177.16668980  .00018718  00000+0  98512-3 0  9998
2 49139  70.0005 339.9604 0003580 279.2297 255.4531 15.15650129  5801
STARLINK-3093           
1 49141U 21082M   26176.99446102  .00000927  00000+0  85449-4 0  9990
2 49141  70.0000  21.3926 0002705 262.9592  97.1259 14.98344380263402
STARLINK-3109           
1 49143U 21082P   26176.95280450 -.00000083  00000+0  77579-6 0  9991
2 49143  70.0002   2.6201 0002835 270.3954  89.6879 14.97528068263773
STARLINK-3100           
1 49144U 21082Q   26176.98611049  .00000575  00000+0  55988-4 0  9990
2 49144  70.0000  21.3934 0002989 269.0753  91.0064 14.98333036262205
STARLINK-3119           
1 49145U 21082R   26176.86881749  .00000182  00000+0  23080-4 0  9996
2 49145  69.9999 341.6822 0003312 267.4762  92.6018 14.98333713263161
STARLINK-3116           
1 49146U 21082S   26176.94863147  .00000419  00000+0  43702-4 0  9994
2 49146  69.9996   2.6342 0002688 268.1929  91.8922 14.97527903263810
STARLINK-3071           
1 49147U 21082T   26176.88133573  .00000164  00000+0  21503-4 0  9993
2 49147  69.9997 341.6684 0003006 267.8321  92.2494 14.98332062263173
STARLINK-3048           
1 49148U 21082U   26176.94028139  .00000283  00000+0  32070-4 0  9995
2 49148  69.9999   2.6337 0002203 269.2907  90.7999 14.97524579262659
STARLINK-3102           
1 49151U 21082X   26177.19427395  .00000218  00000+0  26053-4 0  9996
2 49151  70.0000 340.8694 0003034 267.8010  92.2801 14.98329260264410
STARLINK-3072           
1 49153U 21082Z   26176.85212899  .00000515  00000+0  50984-4 0  9991
2 49153  70.0005 341.7393 0002378 268.8408  91.2479 14.98330813264376
STARLINK-3068           
1 49154U 21082AA  26176.93610860  .00000265  00000+0  30589-4 0  9992
2 49154  69.9999   2.6482 0002706 269.7039  90.3809 14.97523199263739
STARLINK-3060           
1 49155U 21082AB  26177.18175625 -.00000026  00000+0  55772-5 0  9994
2 49155  70.0005 340.8995 0003019 268.1606  91.9207 14.98329935264292
STARLINK-3085           
1 49156U 21082AC  26177.16089330 -.00000211  00000+0 -98664-5 0  9994
2 49156  70.0005 340.9534 0002877 267.6172  92.4658 14.98329462264297
STARLINK-3051           
1 49157U 21082AD  26177.20015279  .00003828  00000+0  27000-3 0  9990
2 49157  69.9984 355.2318 0001545 136.0638 224.0648 15.05827081263961
STARLINK-3083           
1 49158U 21082AE  26177.17244256  .00090357  00000+0  50201-3 0  9998
2 49158  69.9604 227.4349 0004173 294.9374  65.1392 15.79086968267096
STARLINK-3056           
1 49159U 21082AF  26176.97359907  .00000622  00000+0  59968-4 0  9992
2 49159  69.9996  21.4351 0002801 269.1344  90.9494 14.98322896263293
STARLINK-3095           
1 49160U 21082AG  26176.89431589  .00000149  00000+0  20246-4 0  9993
2 49160  69.9994  21.6162 0002954 267.6629  92.4192 14.98331872263255
STARLINK-3080           
1 49161U 21082AH  26176.89848794  .00000564  00000+0  55053-4 0  9999
2 49161  70.0001  21.6030 0002723 263.9780  96.1069 14.98331685263260
STARLINK-3088           
1 49163U 21082AK  26176.92358178  .00000298  00000+0  33360-4 0  9998
2 49163  70.0000   2.6903 0002899 270.3441  89.7386 14.97525017263813
STARLINK-3106           
1 49164U 21082AL  26176.92329463  .00012340  00000+0  10417-2 0  9991
2 49164  69.9999   1.5577 0003208 260.8237  99.2559 14.98271734263841
STARLINK-3052           
1 49165U 21082AM  26176.95690594  .00001006  00000+0  92106-4 0  9995
2 49165  69.9996  21.4904 0002926 271.6527  88.4297 14.98331312263390
STARLINK-3089           
1 49166U 21082AN  26176.91942023  .00000750  00000+0  72097-4 0  9991
2 49166  69.9994   2.7037 0002985 271.3529  88.7287 14.97524065263853
STARLINK-3054           
1 49167U 21082AP  26176.94855985 -.00000967  00000+0 -73217-4 0  9992
2 49167  70.0000  21.4913 0003051 268.1306  91.9504 14.98336886263398
